{
    "links": {
        "self": "http://www.neowsapp.com/rest/v1/neo/3648004?api_key=iIulBulltgU6a56xZRHN4H3l9WmuAYTsLGpBGhQ2"
    },
    "id": "3648004",
    "neo_reference_id": "3648004",
    "name": "(2013 RN43)",
    "designation": "2013 RN43",
    "nasa_jpl_url": "http://ssd.jpl.nasa.gov/sbdb.cgi?sstr=3648004",
    "absolute_magnitude_h": 24.5,
    "estimated_diameter": {
        "kilometers": {
            "estimated_diameter_min": 0.0334622374,
            "estimated_diameter_max": 0.0748238376
        },
        "meters": {
            "estimated_diameter_min": 33.4622374455,
            "estimated_diameter_max": 74.8238376074
        },
        "miles": {
            "estimated_diameter_min": 0.0207924639,
            "estimated_diameter_max": 0.0464933628
        },
        "feet": {
            "estimated_diameter_min": 109.7842471007,
            "estimated_diameter_max": 245.4850393757
        }
    },
    "is_potentially_hazardous_asteroid": false,
    "close_approach_data": [
        {
            "close_approach_date": "2006-08-24",
            "close_approach_date_full": "2006-Aug-24 11:52",
            "epoch_date_close_approach": 1156420320000,
            "relative_velocity": {
                "kilometers_per_second": "5.7053273491",
                "kilometers_per_hour": "20539.1784569202",
                "miles_per_hour": "12762.2467473013"
            },
            "miss_distance": {
                "astronomical": "0.0845316674",
                "lunar": "32.8828186186",
                "kilometers": "12645757.390588438",
                "miles": "7857709.2756909244"
            },
            "orbiting_body": "Mars"
        },
        {
            "close_approach_date": "2013-09-20",
            "close_approach_date_full": "2013-Sep-20 08:00",
            "epoch_date_close_approach": 1379664000000,
            "relative_velocity": {
                "kilometers_per_second": "6.645431557",
                "kilometers_per_hour": "23923.5536051524",
                "miles_per_hour": "14865.1658498237"
            },
            "miss_distance": {
                "astronomical": "0.0942484981",
                "lunar": "36.6626657609",
                "kilometers": "14099374.566459047",
                "miles": "8760945.1051749686"
            },
            "orbiting_body": "Earth"
        },
        {
            "close_approach_date": "2027-09-20",
            "close_approach_date_full": "2027-Sep-20 13:13",
            "epoch_date_close_approach": 1821445980000,
            "relative_velocity": {
                "kilometers_per_second": "6.3399548894",
                "kilometers_per_hour": "22823.8376019835",
                "miles_per_hour": "14181.845092188"
            },
            "miss_distance": {
                "astronomical": "0.1093281878",
                "lunar": "42.5286650542",
                "kilometers": "16355264.025839986",
                "miles": "10162689.8154683668"
            },
            "orbiting_body": "Earth"
        }
    ],
    "orbital_data": {
        "orbit_id": "8",
        "orbit_determination_date": "2017-04-06 08:44:44",
        "first_observation_date": "2013-09-12",
        "last_observation_date": "2013-09-24",
        "data_arc_in_days": 12,
        "observations_used": 30,
        "orbit_uncertainty": "8",
        "minimum_orbit_intersection": ".0941163",
        "jupiter_tisserand_invariant": "4.848",
        "epoch_osculation": "2456549.5",
        "eccentricity": ".2064616126842874",
        "semi_major_axis": "1.342988247322352",
        "inclination": "11.80970559621656",
        "ascending_node_longitude": "168.4257525999114",
        "orbital_period": "568.4689456884706",
        "perihelion_distance": "1.065712727964135",
        "perihelion_argument": "219.8533162973894",
        "aphelion_distance": "1.62026376668057",
        "perihelion_time": "2456587.833378477223",
        "mean_anomaly": "335.7242390169843",
        "mean_motion": ".6332799755033327",
        "equinox": "J2000",
        "orbit_class": {
            "orbit_class_type": "AMO",
            "orbit_class_description": "Near-Earth asteroid orbits similar to that of 1221 Amor",
            "orbit_class_range": "1.017 AU < q (perihelion) < 1.3 AU"
        }
    },
    "is_sentry_object": false
}